{
  "norad_id": 63845,
  "name": "STARLINK-34011",
  "history": [
    {
      "epoch": "2026-03-28T22:52:21.221760Z",
      "apogee_km": 483.0941016413817,
      "perigee_km": 482.83845693319563,
      "latitude_deg": -4.78121696153007e-05,
      "longitude_deg": 160.06554634233598,
      "height_km": 482.8269496201885,
      "semi_major_axis_km": 6861.103279287288,
      "eccentricity": 1.863e-05,
      "inclination_deg": 43.0028,
      "raan_deg": 329.5201,
      "arg_perigee_deg": 228.4279,
      "mean_anomaly_deg": 131.6556,
      "mean_motion_rev_day": 15.27607658
    },
    {
      "epoch": "2026-03-29T02:00:39.849120Z",
      "apogee_km": 483.9601241934961,
      "perigee_km": 482.0335178165569,
      "latitude_deg": 4.298607585919631e-05,
      "longitude_deg": 112.1184352621631,
      "height_km": 482.63616970388847,
      "semi_major_axis_km": 6861.133821005026,
      "eccentricity": 0.0001404,
      "inclination_deg": 43.0022,
      "raan_deg": 328.7794,
      "arg_perigee_deg": 278.2125,
      "mean_anomaly_deg": 81.8568,
      "mean_motion_rev_day": 15.27597458
    },
    {
      "epoch": "2026-03-30T01:33:00.778176Z",
      "apogee_km": 484.22473489479853,
      "perigee_km": 481.7905380006796,
      "latitude_deg": -1.0267587773737119e-05,
      "longitude_deg": 112.52385619989177,
      "height_km": 482.8905698338525,
      "semi_major_axis_km": 6861.144636447739,
      "eccentricity": 0.00017739,
      "inclination_deg": 43.0022,
      "raan_deg": 323.2388,
      "arg_perigee_deg": 265.0175,
      "mean_anomaly_deg": 95.0474,
      "mean_motion_rev_day": 15.27593846
    },
    {
      "epoch": "2026-03-30T07:49:38.470080Z",
      "apogee_km": 484.0516760335058,
      "perigee_km": 481.9299408700199,
      "latitude_deg": 1.3153647534305726e-05,
      "longitude_deg": 16.634039036040747,
      "height_km": 482.70011902824376,
      "semi_major_axis_km": 6861.127808451763,
      "eccentricity": 0.00015462,
      "inclination_deg": 43.0024,
      "raan_deg": 321.7638,
      "arg_perigee_deg": 273.6633,
      "mean_anomaly_deg": 86.4042,
      "mean_motion_rev_day": 15.27599466
    },
    {
      "epoch": "2026-03-30T21:57:03.241440Z",
      "apogee_km": 484.2117386048749,
      "perigee_km": 481.8436762177589,
      "latitude_deg": 7.1917776830646565e-06,
      "longitude_deg": 160.87568587002997,
      "height_km": 482.8298215936946,
      "semi_major_axis_km": 6861.164707411317,
      "eccentricity": 0.00017257,
      "inclination_deg": 42.9999,
      "raan_deg": 318.4387,
      "arg_perigee_deg": 268.7821,
      "mean_anomaly_deg": 91.2833,
      "mean_motion_rev_day": 15.27587143
    },
    {
      "epoch": "2026-03-31T21:29:24.569664Z",
      "apogee_km": 483.67805443388534,
      "perigee_km": 482.31268909190476,
      "latitude_deg": -2.3258008375677943e-06,
      "longitude_deg": 161.28088650743695,
      "height_km": 482.8301732144336,
      "semi_major_axis_km": 6861.132371762895,
      "eccentricity": 9.95e-05,
      "inclination_deg": 43.0014,
      "raan_deg": 312.8995,
      "arg_perigee_deg": 265.1008,
      "mean_anomaly_deg": 94.973,
      "mean_motion_rev_day": 15.27597942
    },
    {
      "epoch": "2026-04-01T21:01:45.100416Z",
      "apogee_km": 483.5015958927579,
      "perigee_km": 482.4504733758513,
      "latitude_deg": 6.8269946128001196e-06,
      "longitude_deg": 161.69123882431063,
      "height_km": 482.833115516297,
      "semi_major_axis_km": 6861.113034634304,
      "eccentricity": 7.66e-05,
      "inclination_deg": 43.0007,
      "raan_deg": 307.3621,
      "arg_perigee_deg": 261.1478,
      "mean_anomaly_deg": 98.9287,
      "mean_motion_rev_day": 15.276044
    },
    {
      "epoch": "2026-04-02T20:34:05.456640Z",
      "apogee_km": 483.6938044200342,
      "perigee_km": 482.2312924402904,
      "latitude_deg": -3.6318598195722266e-05,
      "longitude_deg": 162.09996408315624,
      "height_km": 482.7160872977643,
      "semi_major_axis_km": 6861.099548430162,
      "eccentricity": 0.00010658,
      "inclination_deg": 43.0,
      "raan_deg": 301.8224,
      "arg_perigee_deg": 271.7932,
      "mean_anomaly_deg": 88.2797,
      "mean_motion_rev_day": 15.27608904
    },
    {
      "epoch": "2026-04-03T13:49:48.740448Z",
      "apogee_km": 483.1573448099616,
      "perigee_km": 482.8252661999759,
      "latitude_deg": -1.31732062693636e-05,
      "longitude_deg": -101.60038648433563,
      "height_km": 482.83360967545747,
      "semi_major_axis_km": 6861.128305504969,
      "eccentricity": 2.42e-05,
      "inclination_deg": 42.9964,
      "raan_deg": 297.7613,
      "arg_perigee_deg": 246.1698,
      "mean_anomaly_deg": 113.9128,
      "mean_motion_rev_day": 15.275993
    },
    {
      "epoch": "2026-04-04T13:22:09.920928Z",
      "apogee_km": 483.4124605111947,
      "perigee_km": 482.5644254064464,
      "latitude_deg": -5.218782077253345e-05,
      "longitude_deg": -101.194201937268,
      "height_km": 482.75908164866155,
      "semi_major_axis_km": 6861.125442958821,
      "eccentricity": 6.18e-05,
      "inclination_deg": 42.9982,
      "raan_deg": 292.2225,
      "arg_perigee_deg": 270.6997,
      "mean_anomaly_deg": 89.3783,
      "mean_motion_rev_day": 15.27600256
    },
    {
      "epoch": "2026-04-05T12:54:31.121280Z",
      "apogee_km": 483.52981429829924,
      "perigee_km": 482.5166953750686,
      "latitude_deg": 2.69804594166994e-05,
      "longitude_deg": -100.78637519636814,
      "height_km": 482.4132472821351,
      "semi_major_axis_km": 6861.160254836684,
      "eccentricity": 7.383e-05,
      "inclination_deg": 42.997,
      "raan_deg": 286.6853,
      "arg_perigee_deg": 319.5721,
      "mean_anomaly_deg": 40.5076,
      "mean_motion_rev_day": 15.2758863
    },
    {
      "epoch": "2026-04-05T19:11:08.573856Z",
      "apogee_km": 484.62565389433985,
      "perigee_km": 481.4503021145183,
      "latitude_deg": 3.1006747471074938e-06,
      "longitude_deg": 163.3191563543068,
      "height_km": 482.982602889027,
      "semi_major_axis_km": 6861.174978004428,
      "eccentricity": 0.0002314,
      "inclination_deg": 43.0012,
      "raan_deg": 285.2047,
      "arg_perigee_deg": 263.9577,
      "mean_anomaly_deg": 96.1011,
      "mean_motion_rev_day": 15.27583713
    },
    {
      "epoch": "2026-04-05T19:11:08.574720Z",
      "apogee_km": 484.62544805908965,
      "perigee_km": 481.4505079497685,
      "latitude_deg": 7.554795225673846e-07,
      "longitude_deg": 163.31915024353586,
      "height_km": 482.9825812251279,
      "semi_major_axis_km": 6861.174978004428,
      "eccentricity": 0.00023137,
      "inclination_deg": 43.0012,
      "raan_deg": 285.2047,
      "arg_perigee_deg": 263.9577,
      "mean_anomaly_deg": 96.1011,
      "mean_motion_rev_day": 15.27583713
    },
    {
      "epoch": "2026-04-07T11:59:12.880896Z",
      "apogee_km": 484.21504356074547,
      "perigee_km": 481.7671302818935,
      "latitude_deg": 5.491978689389318e-05,
      "longitude_deg": -99.97558428375771,
      "height_km": 482.75332753603215,
      "semi_major_axis_km": 6861.128086921319,
      "eccentricity": 0.00017839,
      "inclination_deg": 43.0003,
      "raan_deg": 275.6035,
      "arg_perigee_deg": 270.6927,
      "mean_anomaly_deg": 89.3721,
      "mean_motion_rev_day": 15.27599373
    },
    {
      "epoch": "2026-04-07T18:15:50.333472Z",
      "apogee_km": 483.38979628241486,
      "perigee_km": 482.6035103657441,
      "latitude_deg": -3.0159976548008606e-05,
      "longitude_deg": 164.13548170888313,
      "height_km": 482.8547890321713,
      "semi_major_axis_km": 6861.133653324079,
      "eccentricity": 5.73e-05,
      "inclination_deg": 43.0026,
      "raan_deg": 274.1285,
      "arg_perigee_deg": 257.9764,
      "mean_anomaly_deg": 102.1023,
      "mean_motion_rev_day": 15.27597514
    },
    {
      "epoch": "2026-04-08T11:31:33.694176Z",
      "apogee_km": 483.5464250123259,
      "perigee_km": 482.4395875197142,
      "latitude_deg": -3.112655268180391e-05,
      "longitude_deg": -99.5651180906602,
      "height_km": 482.81097227638145,
      "semi_major_axis_km": 6861.130006266019,
      "eccentricity": 8.066e-05,
      "inclination_deg": 43.0006,
      "raan_deg": 270.0675,
      "arg_perigee_deg": 265.6767,
      "mean_anomaly_deg": 94.3992,
      "mean_motion_rev_day": 15.27598732
    },
    {
      "epoch": "2026-04-09T18:54:40.990752Z",
      "apogee_km": 483.7857633195399,
      "perigee_km": 482.12812302286966,
      "latitude_deg": 6.557535573149992e-07,
      "longitude_deg": 140.98065856475782,
      "height_km": 482.60037891981597,
      "semi_major_axis_km": 6861.093943171205,
      "eccentricity": 0.0001208,
      "inclination_deg": 43.0021,
      "raan_deg": 262.6826,
      "arg_perigee_deg": 279.258,
      "mean_anomaly_deg": 80.8135,
      "mean_motion_rev_day": 15.27610776
    },
    {
      "epoch": "2026-04-10T12:10:24.392928Z",
      "apogee_km": 484.4555373337389,
      "perigee_km": 481.62735957728546,
      "latitude_deg": 2.9512060089255435e-05,
      "longitude_deg": -122.72028234774379,
      "height_km": 482.5892571127033,
      "semi_major_axis_km": 6861.178448455512,
      "eccentricity": 0.0002061,
      "inclination_deg": 43.0032,
      "raan_deg": 258.6214,
      "arg_perigee_deg": 279.3515,
      "mean_anomaly_deg": 80.7104,
      "mean_motion_rev_day": 15.27582554
    },
    {
      "epoch": "2026-04-11T19:33:32.163840Z",
      "apogee_km": 484.1439399198116,
      "perigee_km": 481.8756447902588,
      "latitude_deg": -2.591655159888991e-05,
      "longitude_deg": 117.82272095175973,
      "height_km": 482.74194066073693,
      "semi_major_axis_km": 6861.146792355035,
      "eccentricity": 0.0001653,
      "inclination_deg": 43.0035,
      "raan_deg": 251.2358,
      "arg_perigee_deg": 272.2818,
      "mean_anomaly_deg": 87.7844,
      "mean_motion_rev_day": 15.27593126
    }
  ]
}